IRIDIUM 171             
1 43929U 19002H   25027.47910650  .00000017  00000+0 -10981-5 0  9999
2 43929  86.3992 205.1312 0002306  88.4813 271.6647 14.34217375316474
IRIDIUM 170             
1 43930U 19002J   25027.00970926  .00000841  00000+0  12947-3 0  9998
2 43930  86.6106 205.1072 0002018  94.5448 265.6000 14.72258187324788
IRIDIUM 167             
1 43931U 19002K   25026.91461717 -.00000008  00000+0 -99944-5 0  9992
2 43931  86.3982 205.1348 0002271  98.4689 261.6764 14.34217463316396
IRIDIUM 181             
1 56726U 23068S   25027.20985791  .00000759  00000+0  21932-3 0  9992
2 56726  86.4483 268.1376 0002656  83.4179 276.7324 14.43322065 89452
IRIDIUM 177             
1 56727U 23068T   25026.91903311  .00001159  00000+0  14911-3 0  9992
2 56727  86.1973 209.1222 0001851  90.5117 269.6316 14.80229821 91470
IRIDIUM 174             
1 56728U 23068U   25026.91351075  .00000307  00000+0  36927-4 0  9993
2 56728  86.1979 209.2457 0002240  84.3538 275.7939 14.80229216 91476
IRIDIUM 178             
1 56729U 23068V   25027.17846131  .00000179  00000+0  20118-4 0  9997
2 56729  86.5752 237.1758 0002957  74.5361 285.6187 14.80213318 91510
IRIDIUM 179             
1 56730U 23068W   25027.10547530  .00002456  00000+0  31989-3 0  9990
2 56730  86.6758 244.1602 0002299  79.9340 280.2140 14.80226988 91506
